{
  "links" : {
    "next" : "https://api.nasa.gov/neo/rest/v1/feed?start_date=2016-05-09&end_date=2016-05-09&detailed=true&api_key=t0TVs3DtDT2H8Oy2Zy8m2eVrNsAVKAexjcZXUckd",
    "prev" : "https://api.nasa.gov/neo/rest/v1/feed?start_date=2016-05-07&end_date=2016-05-07&detailed=true&api_key=t0TVs3DtDT2H8Oy2Zy8m2eVrNsAVKAexjcZXUckd",
    "self" : "https://api.nasa.gov/neo/rest/v1/feed?start_date=2016-05-08&end_date=2016-05-08&detailed=true&api_key=t0TVs3DtDT2H8Oy2Zy8m2eVrNsAVKAexjcZXUckd"
  },
  "element_count" : 9,
  "near_earth_objects" : {
    "2016-05-08" : [ {
      "links" : {
        "self" : "https://api.nasa.gov/neo/rest/v1/neo/3753305?api_key=t0TVs3DtDT2H8Oy2Zy8m2eVrNsAVKAexjcZXUckd"
      },
      "neo_reference_id" : "3753305",
      "name" : "(2016 JF29)",
      "nasa_jpl_url" : "http://ssd.jpl.nasa.gov/sbdb.cgi?sstr=3753305",
      "absolute_magnitude_h" : 22.6,
      "estimated_diameter" : {
        "kilometers" : {
          "estimated_diameter_min" : 0.0802703167,
          "estimated_diameter_max" : 0.1794898848
        },
        "meters" : {
          "estimated_diameter_min" : 80.2703167283,
          "estimated_diameter_max" : 179.4898847799
        },
        "miles" : {
          "estimated_diameter_min" : 0.049877647,
          "estimated_diameter_max" : 0.1115298092
        },
        "feet" : {
          "estimated_diameter_min" : 263.3540659348,
          "estimated_diameter_max" : 588.8775935812
        }
      },
      "is_potentially_hazardous_asteroid" : false,
      "close_approach_data" : [ {
        "close_approach_date" : "2016-05-08",
        "epoch_date_close_approach" : 1462690800000,
        "relative_velocity" : {
          "kilometers_per_second" : "7.1158824719",
          "kilometers_per_hour" : "25617.1768988129",
          "miles_per_hour" : "15917.5175013763"
        },
        "miss_distance" : {
          "astronomical" : "0.3632080392",
          "lunar" : "141.2879180908",
          "kilometers" : "54335148",
          "miles" : "33762296"
        },
        "orbiting_body" : "Earth"
      } ],
      "orbital_data" : {
        "orbit_id" : "8",
        "orbit_determination_date" : "2017-04-06 08:25:53",
        "orbit_uncertainty" : "6",
        "minimum_orbit_intersection" : ".225713",
        "jupiter_tisserand_invariant" : "4.920",
        "epoch_osculation" : "2458000.5",
        "eccentricity" : ".08304965504425903",
        "semi_major_axis" : "1.319251231444298",
        "inclination" : "13.45240527459033",
        "ascending_node_longitude" : "195.834219330468",
        "orbital_period" : "553.4643972635688",
        "perihelion_distance" : "1.209687871756135",
        "perihelion_argument" : "139.018093854083",
        "aphelion_distance" : "1.428814591132461",
        "perihelion_time" : "2458220.246992262382",
        "mean_anomaly" : "217.0659330472081",
        "mean_motion" : ".650448342802007",
        "equinox" : "J2000"
      }
    }, {
      "links" : {
        "self" : "https://api.nasa.gov/neo/rest/v1/neo/3753292?api_key=t0TVs3DtDT2H8Oy2Zy8m2eVrNsAVKAexjcZXUckd"
      },
      "neo_reference_id" : "3753292",
      "name" : "(2016 JX28)",
      "nasa_jpl_url" : "http://ssd.jpl.nasa.gov/sbdb.cgi?sstr=3753292",
      "absolute_magnitude_h" : 24.6,
      "estimated_diameter" : {
        "kilometers" : {
          "estimated_diameter_min" : 0.0319561887,
          "estimated_diameter_max" : 0.0714562102
        },
        "meters" : {
          "estimated_diameter_min" : 31.9561886721,
          "estimated_diameter_max" : 71.4562101727
        },
        "miles" : {
          "estimated_diameter_min" : 0.0198566489,
          "estimated_diameter_max" : 0.0444008168
        },
        "feet" : {
          "estimated_diameter_min" : 104.8431420431,
          "estimated_diameter_max" : 234.436392583
        }
      },
      "is_potentially_hazardous_asteroid" : false,
      "close_approach_data" : [ {
        "close_approach_date" : "2016-05-08",
        "epoch_date_close_approach" : 1462690800000,
        "relative_velocity" : {
          "kilometers_per_second" : "10.4911331959",
          "kilometers_per_hour" : "37768.07950519",
          "miles_per_hour" : "23467.6158458776"
        },
        "miss_distance" : {
          "astronomical" : "0.0368058069",
          "lunar" : "14.3174591064",
          "kilometers" : "5506070.5",
          "miles" : "3421313.75"
        },
        "orbiting_body" : "Earth"
      } ],
      "orbital_data" : {
        "orbit_id" : "11",
        "orbit_determination_date" : "2017-04-06 08:25:55",
        "orbit_uncertainty" : "7",
        "minimum_orbit_intersection" : ".00462303",
        "jupiter_tisserand_invariant" : "4.612",
        "epoch_osculation" : "2458000.5",
        "eccentricity" : ".394023958492224",
        "semi_major_axis" : "1.425574281765808",
        "inclination" : "1.702417834434078",
        "ascending_node_longitude" : "53.27554871062193",
        "orbital_period" : "621.7033458064565",
        "perihelion_distance" : ".8638638601397352",
        "perihelion_argument" : "110.7799079916886",
        "aphelion_distance" : "1.987284703391881",
        "perihelion_time" : "2458090.783482257036",
        "mean_anomaly" : "307.7209607576226",
        "mean_motion" : ".5790543068945816",
        "equinox" : "J2000"
      }
    }, {
      "links" : {
        "self" : "https://api.nasa.gov/neo/rest/v1/neo/3752568?api_key=t0TVs3DtDT2H8Oy2Zy8m2eVrNsAVKAexjcZXUckd"
      },
      "neo_reference_id" : "3752568",
      "name" : "(2016 HG19)",
      "nasa_jpl_url" : "http://ssd.jpl.nasa.gov/sbdb.cgi?sstr=3752568",
      "absolute_magnitude_h" : 23.1,
      "estimated_diameter" : {
        "kilometers" : {
          "estimated_diameter_min" : 0.063760979,
          "estimated_diameter_max" : 0.1425738833
        },
        "meters" : {
          "estimated_diameter_min" : 63.7609789875,
          "estimated_diameter_max" : 142.5738833281
        },
        "miles" : {
          "estimated_diameter_min" : 0.0396192233,
          "estimated_diameter_max" : 0.0885912765
        },
        "feet" : {
          "estimated_diameter_min" : 209.1895703015,
          "estimated_diameter_max" : 467.7620993781
        }
      },
      "is_potentially_hazardous_asteroid" : false,
      "close_approach_data" : [ {
        "close_approach_date" : "2016-05-08",
        "epoch_date_close_approach" : 1462690800000,
        "relative_velocity" : {
          "kilometers_per_second" : "12.80300029",
          "kilometers_per_hour" : "46090.801044032",
          "miles_per_hour" : "28639.0313487209"
        },
        "miss_distance" : {
          "astronomical" : "0.1894948812",
          "lunar" : "73.713508606",
          "kilometers" : "28348030",
          "miles" : "17614650"
        },
        "orbiting_body" : "Earth"
      } ],
      "orbital_data" : {
        "orbit_id" : "11",
        "orbit_determination_date" : "2017-04-06 08:26:19",
        "orbit_uncertainty" : "4",
        "minimum_orbit_intersection" : ".155164",
        "jupiter_tisserand_invariant" : "5.083",
        "epoch_osculation" : "2458000.5",
        "eccentricity" : ".1964086007357508",
        "semi_major_axis" : "1.234957913485158",
        "inclination" : "24.41716995239477",
        "ascending_node_longitude" : "39.62917720190391",
        "orbital_period" : "501.2757125008889",
        "perihelion_distance" : ".9924015577299957",
        "perihelion_argument" : "275.0711373985919",
        "aphelion_distance" : "1.47751426924032",
        "perihelion_time" : "2458111.266532100748",
        "mean_anomaly" : "280.4510600417359",
        "mean_motion" : ".7181676491046065",
        "equinox" : "J2000"
      }
    } ]
  }
}